NORAD_CAT_ID,OBJECT_NAME,OBJECT_TYPE,EPOCH,MEAN_MOTION,ECCENTRICITY,INCLINATION,RA_OF_ASC_NODE,ARG_OF_PERICENTER,MEAN_ANOMALY,BSTAR,MEAN_MOTION_DOT,MEAN_MOTION_DDOT,TLE_LINE0,TLE_LINE1,TLE_LINE2,SEMIMAJOR_AXIS,PERIOD,APOGEE,PERIGEE,DECAYED
52300.0,STARLINK-3769,PAYLOAD,2022-05-15 06:00:00,15.72790336,0.0002466,53.2169,258.1642,32.371,243.4025,0.004077,0.00604023,0.0,0 STARLINK-3769,1 52300U 22041AR  22135.25001157  .00604023  00000-0  40770-2 0  9998,2 52300  53.2169 258.1642 0002466  32.3710 243.4025 15.72790336  4939,6729.063,91.557,352.588,349.269,0.0
52300.0,STARLINK-3769,PAYLOAD,2022-05-15 14:00:01,15.73231143,0.0002431,53.2153,256.5154,18.8479,345.8842,-0.00042172,-0.00059478,0.0,0 STARLINK-3769,1 52300U 22041AR  22135.58335648 -.00059478  00000-0 -42172-3 0  9998,2 52300  53.2153 256.5154 0002431  18.8479 345.8842 15.73231143  4992,6727.806,91.531,351.307,348.036,0.0
52300.0,STARLINK-3769,PAYLOAD,2022-05-15 22:00:00,15.73223284,0.0002554,53.2147,254.8657,19.4665,74.1522,0.00035517,0.00049574,0.0,0 STARLINK-3769,1 52300U 22041AR  22135.91667824  .00049574  00000-0  35517-3 0  9998,2 52300  53.2147 254.8657 0002554  19.4665  74.1522 15.73223284  5045,6727.829000000002,91.532,351.412,347.976,0.0
52300.0,STARLINK-3769,PAYLOAD,2022-05-16 06:00:02,15.73227203,0.0002272,53.2149,253.2144,19.3195,163.3275,-7.157100000000001e-05,-0.00010666,0.0,0 STARLINK-3769,1 52300U 22041AR  22136.25002315 -.00010666  00000-0 -71571-4 0  9997,2 52300  53.2149 253.2144 0002272  19.3195 163.3275 15.73227203  5091,6727.818,91.532,351.211,348.154,0.0
52300.0,STARLINK-3769,PAYLOAD,2022-05-16 14:00:01,15.73222497,0.0002546,53.2151,251.567,18.1899,253.3452,-0.0007659,-0.0010688,0.0,0 STARLINK-3769,1 52300U 22041AR  22136.58334491 -.00106880  00000-0 -76590-3 0  9995,2 52300  53.2151 251.5670 0002546  18.1899 253.3452 15.73222497  1308,6727.831,91.532,351.409,347.983,0.0
52300.0,STARLINK-3769,PAYLOAD,2022-05-16 20:00:01,15.73180064,0.0002698,53.215,250.3301,16.1596,232.0851,-0.00027861,-0.00039514,0.0,0 STARLINK-3769,1 52300U 22041AR  22136.83334491 -.00039514  00000-0 -27861-3 0  9999,2 52300  53.2150 250.3301 0002698  16.1596 232.0851 15.73180064  5185,6727.9519999999975,91.534,351.63199999999995,348.00199999999984,0.0
52300.0,STARLINK-3769,PAYLOAD,2022-05-16 22:00:00,15.73181698,0.0002674,53.2151,249.9172,16.4852,343.982,-0.00039353,-0.00055456,0.0,0 STARLINK-3769,1 52300U 22041AR  22136.91667824 -.00055456  00000-0 -39353-3 0  9999,2 52300  53.2151 249.9172 0002674  16.4852 343.9820 15.73181698  1311,6727.946999999999,91.534,351.611,348.01300000000015,0.0
52300.0,STARLINK-3769,PAYLOAD,2022-05-17 12:00:00,15.73190401,0.0002757,53.215,247.0309,20.1608,45.8219,0.00013027,0.00017694,0.0,0 STARLINK-3769,1 52300U 22041AR  22137.50001157  .00017694  00000-0  13027-3 0  9996,2 52300  53.2150 247.0309 0002757  20.1608  45.8219 15.73190401  5297,6727.9230000000025,91.534,351.642,347.93300000000005,0.0
52300.0,STARLINK-3769,PAYLOAD,2022-05-17 14:00:01,15.73200484,0.0002818,53.2149,246.6189,19.5013,158.7745,2.6876e-05,3.151e-05,0.0,0 STARLINK-3769,1 52300U 22041AR  22137.58335648  .00003151  00000-0  26876-4 0  9999,2 52300  53.2149 246.6189 0002818  19.5013 158.7745 15.73200484  1305,6727.894,91.533,351.655,347.86300000000006,0.0
52300.0,STARLINK-3769,PAYLOAD,2022-05-17 22:00:01,15.7323906,0.0002773,53.2141,244.9688,14.4791,252.7469,-0.00030058,-0.00042673,0.0,0 STARLINK-3769,1 52300U 22041AR  22137.91668981 -.00042673  00000-0 -30058-3 0  9995,2 52300  53.2141 244.9688 0002773  14.4791 252.7469 15.73239060  1309,6727.784000000002,91.531,351.514,347.783,0.0
52300.0,STARLINK-3769,PAYLOAD,2022-05-18 14:00:01,15.73263009,0.0002901999999999,53.2144,241.6707,13.4557,71.6001,-0.00049291,-0.00069434,0.0,0 STARLINK-3769,1 52300U 22041AR  22138.58334491 -.00069434  00000-0 -49291-3 0  9998,2 52300  53.2144 241.6707 0002902  13.4557  71.6001 15.73263009  1301,6727.715999999999,91.53,351.533,347.62800000000016,0.0
52300.0,STARLINK-3769,PAYLOAD,2022-05-18 20:00:01,15.73241868,0.0003043,53.2141,240.4334,12.9956,48.8012,-0.00049096,-0.00069105,0.0,0 STARLINK-3769,1 52300U 22041AR  22138.83334491 -.00069105  00000-0 -49096-3 0  9994,2 52300  53.2141 240.4334 0003043  12.9956  48.8012 15.73241868  5508,6727.776,91.531,351.68800000000016,347.594,0.0
52300.0,STARLINK-3769,PAYLOAD,2022-05-18 22:00:00,15.73255121,0.0002982,53.2143,240.0205,14.0955,159.9374,-0.0008951,-0.0012472999999999,0.0,0 STARLINK-3769,1 52300U 22041AR  22138.91667824 -.00124730  00000-0 -89510-3 0  9993,2 52300  53.2143 240.0205 0002982  14.0955 159.9374 15.73255121  1302,6727.738,91.53,351.6090000000001,347.597,0.0
52300.0,STARLINK-3769,PAYLOAD,2022-05-19 14:00:01,15.73187308,0.0003211,53.2139,236.7221,17.1969,334.7141,0.0002436,0.00033691,0.0,0 STARLINK-3769,1 52300U 22041AR  22139.58335648  .00033691  00000-0  24360-3 0  9998,2 52300  53.2139 236.7221 0003211  17.1969 334.7141 15.73187308  1308,6727.931,91.534,351.957,347.636,0.0
52300.0,STARLINK-3769,PAYLOAD,2022-05-19 22:00:00,15.73251132,0.0003108,53.2132,235.0718,12.9419,67.8469,-0.00057796,-0.00081159,0.0,0 STARLINK-3769,1 52300U 22041AR  22139.91667824 -.00081159  00000-0 -57796-3 0  9992,2 52300  53.2132 235.0718 0003108  12.9419  67.8469 15.73251132  5670,6727.749,91.53,351.705,347.523,0.0
52300.0,STARLINK-3769,PAYLOAD,2022-05-20 14:00:01,15.73226996,0.0003205,53.2136,231.7738,9.2503,249.3938,-0.00018205,-0.0002613,0.0,0 STARLINK-3769,1 52300U 22041AR  22140.58334491 -.00026130  00000-0 -18205-3 0  9998,2 52300  53.2136 231.7738 0003205   9.2503 249.3938 15.73226996  5779,6727.818,91.532,351.839,347.527,0.0
52300.0,STARLINK-3769,PAYLOAD,2022-05-20 22:00:00,15.73263919,0.0003224,53.2135,230.123,7.867000000000001,339.7618,-0.00087792,-0.00122434,0.0,0 STARLINK-3769,1 52300U 22041AR  22140.91667824 -.00122434  00000-0 -87792-3 0  9995,2 52300  53.2135 230.1230 0003224   7.8670 339.7618 15.73263919  5829,6727.7130000000025,91.529,351.747,347.409,0.0
52300.0,STARLINK-3769,PAYLOAD,2022-05-21 06:00:00,15.73425774,0.0003239,53.2157,228.4718,9.5568,66.9575,-0.0047855,-0.00630684,0.0,0 STARLINK-3769,1 52300U 22041AR  22141.25001157 -.00630684  00000-0 -47855-2 0  9990,2 52300  53.2157 228.4718 0003239   9.5568  66.9575 15.73425774  1304,6727.252,91.52,351.296,346.93800000000016,0.0
52300.0,STARLINK-3769,PAYLOAD,2022-05-21 14:00:01,15.73203076,0.0003468,53.2134,226.8248,8.7535,156.8411,0.0002366,0.00032725,0.0,0 STARLINK-3769,1 52300U 22041AR  22141.58335648  .00032725  00000-0  23660-3 0  9990,2 52300  53.2134 226.8248 0003468   8.7535 156.8411 15.73203076  5938,6727.886,91.533,352.085,347.418,0.0
52300.0,STARLINK-3769,PAYLOAD,2022-05-21 22:00:00,15.73270811,0.0003365,53.2128,225.1738,7.2308,247.2629,-0.00079385,-0.00110955,0.0,0 STARLINK-3769,1 52300U 22041AR  22141.91667824 -.00110955  00000-0 -79385-3 0  9990,2 52300  53.2128 225.1738 0003365   7.2308 247.2629 15.73270811  1309,6727.693,91.529,351.82199999999995,347.2940000000001,0.0
52300.0,STARLINK-3769,PAYLOAD,2022-05-22 06:00:00,15.73181071,0.0003276999999999,53.2132,223.5234,11.3039,332.1361,-0.00033045,-0.0004672,0.0,0 STARLINK-3769,1 52300U 22041AR  22142.25001157 -.00046720  00000-0 -33045-3 0  9990,2 52300  53.2132 223.5234 0003277  11.3039 332.1361 15.73181071  6037,6727.949000000001,91.534,352.019,347.6090000000001,0.0
52300.0,STARLINK-3769,PAYLOAD,2022-05-22 14:00:01,15.73163394,0.0003615,53.2134,221.876,11.7192,60.6172,-7.1501e-05,-0.00010634,0.0,0 STARLINK-3769,1 52300U 22041AR  22142.58334491 -.00010634  00000-0 -71501-4 0  9991,2 52300  53.2134 221.8760 0003615  11.7192  60.6172 15.73163394  1300,6728.0,91.535,352.297,347.432,0.0
52300.0,STARLINK-3769,PAYLOAD,2022-05-22 22:00:01,15.73158736,0.000356,53.2135,220.2249,9.1273,152.1709,0.00038157,0.00053188,0.0,0 STARLINK-3769,1 52300U 22041AR  22142.91668981  .00053188  00000-0  38157-3 0  9990,2 52300  53.2135 220.2249 0003560   9.1273 152.1709 15.73158736  6140,6728.013000000001,91.536,352.273,347.483,0.0
52300.0,STARLINK-3769,PAYLOAD,2022-05-23 14:00:01,15.73188638,0.0003769,53.2136,216.9275,7.394,331.6489,-0.00012292,-0.00017837,0.0,0 STARLINK-3769,1 52300U 22041AR  22143.58334491 -.00017837  00000-0 -12292-3 0  9995,2 52300  53.2136 216.9275 0003769   7.3940 331.6489 15.73188638  6248,6727.928000000001,91.534,352.32800000000015,347.25699999999995,0.0
52300.0,STARLINK-3769,PAYLOAD,2022-05-23 20:00:01,15.7287889,0.0003624,53.2159,215.6893,13.0155,302.8297,0.0023814,0.003429,0.0,0 STARLINK-3769,1 52300U 22041AR  22143.83334491  .00342900  00000-0  23814-2 0  9994,2 52300  53.2159 215.6893 0003624  13.0155 302.8297 15.72878890  6283,6728.811,91.552,353.11400000000015,348.237,0.0
52300.0,STARLINK-3769,PAYLOAD,2022-05-23 22:00:01,15.72794049,0.0003458,53.2166,215.2763,12.0829,56.026,0.0042593,0.00633387,0.0,0 STARLINK-3769,1 52300U 22041AR  22143.91668981  .00633387  00000-0  42593-2 0  9994,2 52300  53.2166 215.2763 0003458  12.0829  56.0260 15.72794049  1304,6729.053000000001,91.557,353.245,348.591,0.0
52300.0,STARLINK-3769,PAYLOAD,2022-05-24 04:00:00,15.73217656,0.0003539,53.2134,214.0382,7.9573,36.7614,-0.00014512,-0.00020963,0.0,0 STARLINK-3769,1 52300U 22041AR  22144.16667824 -.00020963  00000-0 -14512-3 0  9990,2 52300  53.2134 214.0382 0003539   7.9573  36.7614 15.73217656  6344,6727.845,91.532,352.091,347.329,0.0
52300.0,STARLINK-3769,PAYLOAD,2022-05-24 12:57:34,15.73180628,0.0003512,53.2147,212.1914,24.6973,335.4215,1.3289e-05,1.241e-05,0.0,0 STARLINK-3769,1 52300U 22041AR  22144.53998678  .00001241  00000-0  13289-4 0  9992,2 52300  53.2147 212.1914 0003512  24.6973 335.4215 15.73180628  6400,6727.95,91.534,352.17800000000005,347.45300000000015,0.0
52300.0,STARLINK-3769,PAYLOAD,2022-05-24 22:00:00,15.73175668,0.0003753,53.2139,210.3273,5.9344,328.8705,4.391e-05,5.538e-05,0.0,0 STARLINK-3769,1 52300U 22041AR  22144.91667824  .00005538  00000-0  43910-4 0  9997,2 52300  53.2139 210.3273 0003753   5.9344 328.8705 15.73175668  1302,6727.965,91.535,352.355,347.305,0.0
